[{"OBJECT_NAME":"OBJECT A","OBJECT_ID":"2024-203A","EPOCH":"2026-03-09T23:31:20.812800","MEAN_MOTION":15.27300571,"ECCENTRICITY":0.00108989,"INCLINATION":97.4288,"RA_OF_ASC_NODE":139.5608,"ARG_OF_PERICENTER":322.6893,"MEAN_ANOMALY":37.3588,"EPHEMERIS_TYPE":0,"CLASSIFICATION_TYPE":"U","NORAD_CAT_ID":61869,"ELEMENT_SET_NO":999,"REV_AT_EPOCH":7380,"BSTAR":0.00061472876,"MEAN_MOTION_DOT":0.00016411,"MEAN_MOTION_DDOT":0},{"OBJECT_NAME":"STARLINK-35746","OBJECT_ID":"2025-268AB","EPOCH":"2026-03-09T04:06:48.489120","MEAN_MOTION":15.27577048,"ECCENTRICITY":0.00015387,"INCLINATION":43.0025,"RA_OF_ASC_NODE":349.7148,"ARG_OF_PERICENTER":252.3791,"MEAN_ANOMALY":107.6892,"EPHEMERIS_TYPE":0,"CLASSIFICATION_TYPE":"U","NORAD_CAT_ID":66582,"ELEMENT_SET_NO":999,"REV_AT_EPOCH":1788,"BSTAR":0.0010504088,"MEAN_MOTION_DOT":0.00028753,"MEAN_MOTION_DDOT":0}]
